     2.10           G: GLONASS NAV DATA                     RINEX VERSION / TYPE
teqc  2015Jun23                         20210617 02:25:48UTCPGM / RUN BY / DATE
Linux 2.4.21-27.ELsmp|Opteron|gcc -static|Linux x86_64|=+   COMMENT
  2021     5    24   -7.916241884232D-09                    CORR TO SYSTEM TIME
                                                            END OF HEADER
 1 21  5 25  9 15  0.0 7.994193583727D-05 0.000000000000D+00 3.240000000000D+04
   -2.556471191406D+03-5.466384887695D-01 1.862645149231D-09 0.000000000000D+00
    2.205132226562D+04 1.633901596069D+00-1.862645149231D-09 1.000000000000D+00
   -1.254289697266D+04 2.983644485474D+00 1.862645149231D-09 0.000000000000D+00
 7 21  5 25  9 15  0.0-4.242081195116D-05 0.000000000000D+00 3.240000000000D+04
   -1.435185644531D+04 1.033895492554D+00 9.313225746155D-10 0.000000000000D+00
    1.257863720703D+04-2.074953079224D+00-9.313225746155D-10 5.000000000000D+00
    1.699037744141D+04 2.411587715149D+00-2.793967723846D-09 0.000000000000D+00
 8 21  5 25  9 15  0.0-5.915760993958D-05-0.000000000000D+00 3.240000000000D+04
   -1.114013574219D+04 2.624216079712D-01 1.862645149231D-09 0.000000000000D+00
    2.286501220703D+04-1.927442550659D-01-1.862645149231D-09 6.000000000000D+00
    2.122115234375D+03 3.553217887878D+00-0.000000000000D+00 0.000000000000D+00
13 21  5 25  9 15  0.0-5.523487925529D-05-0.000000000000D+00 3.315000000000D+04
    1.765374560547D+04 8.891849517822D-01 5.587935447693D-09 0.000000000000D+00
    1.586343798828D+04 9.317321777344D-01 1.862645149231D-09-2.000000000000D+00
    9.328174804688D+03-3.261830329895D+00 9.313225746155D-10 0.000000000000D+00
12 21  5 25  9 45  0.0 2.317400649190D-04 2.728484105319D-12 3.420000000000D+04
    9.867055175781D+03-1.188438415527D+00 2.793967723846D-09 0.000000000000D+00
    1.931597558594D+04-1.411812782288D+00-9.313225746155D-10-1.000000000000D+00
   -1.341384472656D+04-2.899881362915D+00 2.793967723846D-09 0.000000000000D+00
 1 21  5 25  9 45  0.0 7.994286715984D-05 0.000000000000D+00 3.420000000000D+04
   -3.120646972656D+03-1.079492568970D-01 1.862645149231D-09 0.000000000000D+00
    2.438786523438D+04 9.298439025879D-01-2.793967723846D-09 1.000000000000D+00
   -6.756275390625D+03 3.404129981995D+00 9.313225746155D-10 0.000000000000D+00
 7 21  5 25  9 45  0.0-4.241988062859D-05 0.000000000000D+00 3.420000000000D+04
   -1.261874218750D+04 8.555679321289D-01 9.313225746155D-10 0.000000000000D+00
    8.271164550781D+03-2.679235458374D+00-9.313225746155D-10 5.000000000000D+00
    2.062200585938D+04 1.597517013550D+00-2.793967723846D-09 0.000000000000D+00
 8 21  5 25  9 45  0.0-5.915667861700D-05 0.000000000000D+00 3.420000000000D+04
   -1.044968017578D+04 4.632911682129D-01 1.862645149231D-09 0.000000000000D+00
    2.175203076172D+04-1.046207427979D+00-2.793967723846D-09 6.000000000000D+00
    8.353605468750D+03 3.325872421265D+00-9.313225746155D-10 0.000000000000D+00
13 21  5 25  9 45  0.0-5.523581057787D-05-0.000000000000D+00 3.420000000000D+04
    1.886548144531D+04 4.183044433594D-01 5.587935447693D-09 0.000000000000D+00
    1.686845654297D+04 2.000141143799D-01 9.313225746155D-10-2.000000000000D+00
    3.171891113281D+03-3.534016609192D+00 1.862645149231D-09 0.000000000000D+00
 2 21  5 25  9 45  0.0 4.799123853445D-04 9.094947017729D-13 3.528000000000D+04
    7.395658691406D+03-7.878694534302D-01 9.313225746155D-10 0.000000000000D+00
    1.114050292969D+04 2.875320434570D+00-9.313225746155D-10-4.000000000000D+00
   -2.168752539062D+04 1.200413703918D+00 2.793967723846D-09 0.000000000000D+00
12 21  5 25 10 15  0.0 2.317456528544D-04 2.728484105319D-12 3.600000000000D+04
    7.098636718750D+03-1.880890846252D+00 9.313225746155D-10 0.000000000000D+00
    1.655200585938D+04-1.613401412964D+00-1.862645149231D-09-1.000000000000D+00
   -1.804709326172D+04-2.214633941650D+00 2.793967723846D-09 0.000000000000D+00
 1 21  5 25 10 15  0.0 7.994379848242D-05 0.000000000000D+00 3.600000000000D+04
   -3.065035644531D+03 1.321125030518D-01 1.862645149231D-09 0.000000000000D+00
    2.531066357422D+04 7.977771759033D-02-2.793967723846D-09 1.000000000000D+00
   -4.465795898438D+02 3.561058044434D+00 0.000000000000D+00 0.000000000000D+00
 2 21  5 25 10 15  0.0 4.799151793122D-04 9.094947017729D-13 3.600000000000D+04
    6.424758789062D+03-2.993822097778D-01 9.313225746155D-10 0.000000000000D+00
    1.607278613281D+04 2.555880546570D+00-1.862645149231D-09-4.000000000000D+00
   -1.871398291016D+04 2.081799507141D+00 2.793967723846D-09 0.000000000000D+00
 8 21  5 25 10 15  0.0-5.915667861700D-05 0.000000000000D+00 3.600000000000D+04
   -9.622100585938D+03 4.159955978394D-01 9.313225746155D-10 0.000000000000D+00
    1.912538476562D+04-1.855305671692D+00-1.862645149231D-09 6.000000000000D+00
    1.394139697266D+04 2.842748641968D+00-1.862645149231D-09 0.000000000000D+00
13 21  5 25 10 15  0.0-5.523581057787D-05-0.000000000000D+00 3.600000000000D+04
    1.903897216797D+04-2.524681091309D-01 4.656612873077D-09 0.000000000000D+00
    1.666737353516D+04-3.928108215332D-01-0.000000000000D+00-2.000000000000D+00
   -3.229791503906D+03-3.532762527466D+00 2.793967723846D-09 0.000000000000D+00
22 21  5 25 10 15  0.0-1.144111156464D-04-9.094947017729D-13 3.666000000000D+04
   -2.076902978516D+04-1.051827430725D+00-1.862645149231D-09 0.000000000000D+00
    1.197830224609D+04 6.465368270874D-01-2.793967723846D-09-3.000000000000D+00
    8.831216796875D+03-3.333921432495D+00-2.793967723846D-09 0.000000000000D+00
12 21  5 25 10 45  0.0 2.317512407899D-04 2.728484105319D-12 3.780000000000D+04
    3.153752929688D+03-2.477215766907D+00-9.313225746155D-10 0.000000000000D+00
    1.366923583984D+04-1.547326087952D+00-1.862645149231D-09-1.000000000000D+00
   -2.128309570312D+04-1.357456207275D+00 2.793967723846D-09 0.000000000000D+00
 1 21  5 25 10 45  0.0 7.994472980499D-05 0.000000000000D+00 3.780000000000D+04
   -2.788348144531D+03 1.348342895508D-01 9.313225746155D-10 0.000000000000D+00
    2.465291894531D+04-8.069753646851D-01-2.793967723846D-09 1.000000000000D+00
    5.897704101562D+03 3.442327499390D+00-0.000000000000D+00 0.000000000000D+00
 2 21  5 25 10 45  0.0 4.799170419574D-04 9.094947017729D-13 3.780000000000D+04
    6.256654296875D+03 8.775234222412D-02 9.313225746155D-10 0.000000000000D+00
    2.017891992188D+04 1.966593742371D+00-2.793967723846D-09-4.000000000000D+00
   -1.429078613281D+04 2.800726890564D+00 1.862645149231D-09 0.000000000000D+00
 8 21  5 25 10 45  0.0-5.915574729443D-05 0.000000000000D+00 3.780000000000D+04
   -9.084214843750D+03 1.498346328735D-01 9.313225746155D-10 0.000000000000D+00
    1.516593603516D+04-2.510155677795D+00-1.862645149231D-09 6.000000000000D+00
    1.845635498047D+04 2.141598701477D+00-2.793967723846D-09 0.000000000000D+00
13 21  5 25 10 45  0.0-5.523674190044D-05-0.000000000000D+00 3.780000000000D+04
    1.788877197266D+04-1.035534858704D+00 3.725290298462D-09 0.000000000000D+00
    1.558479492188D+04-7.695407867432D-01-9.313225746155D-10-2.000000000000D+00
   -9.381770019531D+03-3.258415222168D+00 2.793967723846D-09 0.000000000000D+00
22 21  5 25 10 45  0.0-1.144139096141D-04-9.094947017729D-13 3.780000000000D+04
   -2.188461621094D+04-1.928319931030D-01-3.725290298462D-09 0.000000000000D+00
    1.295113476562D+04 3.913402557373D-01-2.793967723846D-09-3.000000000000D+00
    2.567624511719D+03-3.580636024475D+00-2.793967723846D-09 0.000000000000D+00
12 21  5 25 11 15  0.0 2.317558974028D-04 2.728484105319D-12 3.960000000000D+04
   -1.700194335938D+03-2.875923156738D+00-2.793967723846D-09 0.000000000000D+00
    1.111743115234D+04-1.256169319153D+00-9.313225746155D-10-1.000000000000D+00
   -2.287039697266D+04-3.946619033813D-01 1.862645149231D-09 0.000000000000D+00
 1 21  5 25 11 15  0.0 7.994566112757D-05 0.000000000000D+00 3.960000000000D+04
   -2.719653808594D+03-9.434509277344D-02 9.313225746155D-10 0.000000000000D+00
    2.245332177734D+04-1.614523887634D+00-2.793967723846D-09 1.000000000000D+00
    1.178559082031D+04 3.057278633118D+00-9.313225746155D-10 0.000000000000D+00
 2 21  5 25 11 15  0.0 4.799198359251D-04 9.094947017729D-13 3.960000000000D+04
    6.628181640625D+03 2.885980606079D-01 9.313225746155D-10 0.000000000000D+00
    2.303462792969D+04 1.181811332703D+00-2.793967723846D-09-4.000000000000D+00
   -8.762255859375D+03 3.302083969116D+00 9.313225746155D-10 0.000000000000D+00
 8 21  5 25 11 15  0.0-5.915481597185D-05 0.000000000000D+00 3.960000000000D+04
   -9.173461914062D+03-2.666740417480D-01 0.000000000000D+00 0.000000000000D+00
    1.023461865234D+04-2.923244476318D+00-9.313225746155D-10 6.000000000000D+00
    2.155253564453D+04 1.276495933533D+00-2.793967723846D-09 0.000000000000D+00
13 21  5 25 11 15  0.0-5.523674190044D-05-0.000000000000D+00 3.960000000000D+04
    1.530928125000D+04-1.821401596069D+00 1.862645149231D-09 0.000000000000D+00
    1.405039697266D+04-8.921823501587D-01-1.862645149231D-09-2.000000000000D+00
   -1.480872265625D+04-2.732448577881D+00 2.793967723846D-09 0.000000000000D+00
22 21  5 25 11 15  0.0-1.144157722592D-04-9.094947017729D-13 3.960000000000D+04
   -2.151633837891D+04 5.782289505005D-01-5.587935447693D-09 0.000000000000D+00
    1.324325683594D+04-1.021795272827D-01-1.862645149231D-09-3.000000000000D+00
   -3.893429199219D+03-3.551981925964D+00-1.862645149231D-09 0.000000000000D+00
24 21  5 25 11 15  0.0 4.399009048939D-05 1.818989403546D-12 4.074000000000D+04
    2.876727050781D+03-2.532981872559D+00 2.793967723846D-09 0.000000000000D+00
    1.105476611328D+04 1.825905799866D+00-9.313225746155D-10 2.000000000000D+00
    2.281687695312D+04-5.663824081421D-01-1.862645149231D-09 0.000000000000D+00
12 21  5 25 11 45  0.0 2.317614853382D-04 2.728484105319D-12 4.140000000000D+04
   -7.036149902344D+03-3.003642082214D+00-4.656612873077D-09 0.000000000000D+00
    9.234909179688D+03-8.193225860596D-01-0.000000000000D+00-1.000000000000D+00
   -2.268525390625D+04 5.990877151489D-01 9.313225746155D-10 0.000000000000D+00
